IRIDIUM 126             
1 42809U 17039G   25097.93262757 -.00000073  00000+0 -33221-4 0  9993
2 42809  86.4039 175.5518 0002039  89.5186 270.6243 14.34217030407569
IRIDIUM 124             
1 42810U 17039H   25097.58539266  .00000346  00000+0  96794-4 0  9993
2 42810  86.4442 112.5007 0002064  94.7456 265.3981 14.43281840412284
IRIDIUM 128             
1 42811U 17039J   25097.78382778  .00000386  00000+0  13070-3 0  9999
2 42811  86.4029 207.0695 0002003 104.4078 255.7340 14.34217855407574
IRIDIUM 121             
1 42812U 17039K   25097.74233504  .00000571  00000+0  19680-3 0  9997
2 42812  86.4025 175.6557 0002173 102.4061 257.7378 14.34218163407415
IRIDIUM 133             
1 42955U 17061A   25097.74577251  .00000043  00000+0  83060-5 0  9999
2 42955  86.4033 207.1921 0002091  97.3618 262.7816 14.34216467392362
IRIDIUM 100             
1 42956U 17061B   25097.80919841 -.00000137  00000+0 -55923-4 0  9994
2 42956  86.4031 207.0947 0001862  96.0677 264.0731 14.34216961392375
IRIDIUM 122             
1 42957U 17061C   25097.77748517 -.00000369  00000+0 -13902-3 0  9998
2 42957  86.4031 207.1070 0001891  91.8781 268.2632 14.34215995392377
IRIDIUM 129             
1 42958U 17061D   25097.73308547  .00000363  00000+0  12243-3 0  9999
2 42958  86.4032 207.1877 0002607  92.7698 267.3797 14.34219719392388
